YAOGAN-36 04C           
1 54750U 22171E   26068.78871400  .00016196  00000+0  54592-3 0  9991
2 54750  34.9797  96.6578 0006685 275.3761  84.6192 15.29852307180246
STARLINK-34433          
1 64448U 25130L   26068.78720526  .00022858  00000+0  78132-3 0  9994
2 64448  53.1605  88.3913 0001464  74.1491 285.9671 15.30207836 40716
